{
    "week": 287,
    "satellites": [
        {
            "Name": "COSMOS 2545 (760)",
            "Line1": "1 45358U 20018A   24283.08631811 -.00000039  00000+0  00000+0 0  9994",
            "Line2": "2 45358  64.6942 333.9920 0011867 242.1900 117.7601  2.13102535 35539",
            "SatelliteNumber": "45358",
            "Classification": "U",
            "LaunchYear": "20",
            "LaunchNumber": "018",
            "PieceOfLaunch": "A",
            "EpochYear": "24",
            "EpochDay": 283.08631811,
            "FirstDerivativeMeanMotion": -3.9e-07,
            "SecondDerivativeMeanMotion": "00000+0",
            "BSTAR": "00000+0",
            "SetNumber": "999",
            "Inclination": 64.6942,
            "RAAN": 333.992,
            "Eccentricity": 0.0011867,
            "ArgumentOfPerigee": 242.19,
            "MeanAnomaly": 117.7601,
            "MeanMotion": 2.13102535,
            "RevolutionNumber": "3553"
        },
        {
            "Name": "COSMOS 2547 (705K)",
            "Line1": "1 46805U 20075A   24284.21142800  .00000020  00000+0  00000+0 0  9995",
            "Line2": "2 46805  64.5985 213.0199 0007596 239.6672 120.2756  2.13102719 30809",
            "SatelliteNumber": "46805",
            "Classification": "U",
            "LaunchYear": "20",
            "LaunchNumber": "075",
            "PieceOfLaunch": "A",
            "EpochYear": "24",
            "EpochDay": 284.211428,
            "FirstDerivativeMeanMotion": 2e-07,
            "SecondDerivativeMeanMotion": "00000+0",
            "BSTAR": "00000+0",
            "SetNumber": "999",
            "Inclination": 64.5985,
            "RAAN": 213.0199,
            "Eccentricity": 0.0007596,
            "ArgumentOfPerigee": 239.6672,
            "MeanAnomaly": 120.2756,
            "MeanMotion": 2.13102719,
            "RevolutionNumber": "3080"
        },
        {
            "Name": "COSMOS 2557 (706K)",
            "Line1": "1 52984U 22075A   24283.90798343 -.00000039  00000+0  00000+0 0  9997",
            "Line2": "2 52984  64.6235 336.0828 0013367 273.8537  86.0635  2.13102166 17605",
            "SatelliteNumber": "52984",
            "Classification": "U",
            "LaunchYear": "22",
            "LaunchNumber": "075",
            "PieceOfLaunch": "A",
            "EpochYear": "24",
            "EpochDay": 283.90798343,
            "FirstDerivativeMeanMotion": -3.9e-07,
            "SecondDerivativeMeanMotion": "00000+0",
            "BSTAR": "00000+0",
            "SetNumber": "999",
            "Inclination": 64.6235,
            "RAAN": 336.0828,
            "Eccentricity": 0.0013367,
            "ArgumentOfPerigee": 273.8537,
            "MeanAnomaly": 86.0635,
            "MeanMotion": 2.13102166,
            "RevolutionNumber": "1760"
        },
        {
            "Name": "COSMOS 2559 (707K)",
            "Line1": "1 54031U 22130A   24284.32051142 -.00000038  00000+0  00000+0 0  9999",
            "Line2": "2 54031  64.5955 336.1820 0008282 225.6965 134.3054  2.13101450 15583",
            "SatelliteNumber": "54031",
            "Classification": "U",
            "LaunchYear": "22",
            "LaunchNumber": "130",
            "PieceOfLaunch": "A",
            "EpochYear": "24",
            "EpochDay": 284.32051142,
            "FirstDerivativeMeanMotion": -3.8e-07,
            "SecondDerivativeMeanMotion": "00000+0",
            "BSTAR": "00000+0",
            "SetNumber": "999",
            "Inclination": 64.5955,
            "RAAN": 336.182,
            "Eccentricity": 0.0008282,
            "ArgumentOfPerigee": 225.6965,
            "MeanAnomaly": 134.3054,
            "MeanMotion": 2.1310145,
            "RevolutionNumber": "1558"
        },
        {
            "Name": "COSMOS 2564 (761)",
            "Line1": "1 54377U 22161A   24283.10306679  .00000028  00000+0  00000+0 0  9997",
            "Line2": "2 54377  64.7401 213.1822 0009883 220.2993 139.6460  2.13102133 14509",
            "SatelliteNumber": "54377",
            "Classification": "U",
            "LaunchYear": "22",
            "LaunchNumber": "161",
            "PieceOfLaunch": "A",
            "EpochYear": "24",
            "EpochDay": 283.10306679,
            "FirstDerivativeMeanMotion": 2.8e-07,
            "SecondDerivativeMeanMotion": "00000+0",
            "BSTAR": "00000+0",
            "SetNumber": "999",
            "Inclination": 64.7401,
            "RAAN": 213.1822,
            "Eccentricity": 0.0009883,
            "ArgumentOfPerigee": 220.2993,
            "MeanAnomaly": 139.646,
            "MeanMotion": 2.13102133,
            "RevolutionNumber": "1450"
        },
        {
            "Name": "COSMOS 2569 (703K)",
            "Line1": "1 57517U 23114A   24284.05810256  .00000074  00000+0  00000+0 0  9992",
            "Line2": "2 57517  64.9705  93.4202 0008592 292.8235  67.1186  2.13103961  9153",
            "SatelliteNumber": "57517",
            "Classification": "U",
            "LaunchYear": "23",
            "LaunchNumber": "114",
            "PieceOfLaunch": "A",
            "EpochYear": "24",
            "EpochDay": 284.05810256,
            "FirstDerivativeMeanMotion": 7.4e-07,
            "SecondDerivativeMeanMotion": "00000+0",
            "BSTAR": "00000+0",
            "SetNumber": "999",
            "Inclination": 64.9705,
            "RAAN": 93.4202,
            "Eccentricity": 0.0008592,
            "ArgumentOfPerigee": 292.8235,
            "MeanAnomaly": 67.1186,
            "MeanMotion": 2.13103961,
            "RevolutionNumber": "915"
        }
    ]
}